NOAA 15                 
1 25338U 98030A   22260.60802217  .00000101  00000+0  60220-4 0  9994
2 25338  98.6390 288.9152 0010909  34.6409 325.5480 14.26171136266405
NOAA 18                 
1 28654U 05018A   22260.55918967  .00000154  00000+0  10689-3 0  9997
2 28654  98.9420 330.8930 0015204  73.2994 286.9845 14.12776543893070
NOAA 19                 
1 33591U 09005A   22260.57087306  .00000102  00000+0  80349-4 0  9993
2 33591  99.1412 296.6135 0012958 290.6616  69.3165 14.12609761701450
METOP-B                 
1 38771U 12049A   22260.64350622  .00000062  00000+0  48605-4 0  9996
2 38771  98.7206 319.0015 0001791 106.1196  55.9211 14.21473635518824
SARAL                   
1 39086U 13009A   22260.47826739  .00000069  00000+0  41974-4 0  9990
2 39086  98.5495  84.7611 0001624  42.8542 317.2768 14.32062511499655
METOP-C                 
1 43689U 18087A   22260.57836924  .00000057  00000+0  45791-4 0  9991
2 43689  98.6753 319.0328 0003692 123.5708 236.5822 14.21507679200396
ANGELS                  
1 44876U 19092D   22260.48035238  .00002636  00000+0  13162-3 0  9997
2 44876  97.4774  82.7509 0012996  43.2448 316.9803 15.18307499152209
